    epoch => '356.39902465'
  },
  'RS-15' => {
    orbit => '24654',
    raan => '238.7573',
    meananomaly => '100.9053',
    eccentricity => '0.0167381',
    meanmotion => '11.27539112',
    inclination => '64.8173',
    number => '94085',
    argperigee => '257.3112',
    mm1 => '-3.9e-07',
    mm2 => '0',
    bstar => '0.00010617',
    id => '23439',
    elset => '516',
    epoch => '355.7537703'
  },
  'UO-36' => {
    orbit => '8995',
    raan => '258.2341',
    meananomaly => '89.6801',
    eccentricity => '0.0050681',
    meanmotion => '14.73545715',
    inclination => '64.5618',
    number => '99021',
    argperigee => '269.8485',
    mm1 => '8.9e-07',
    mm2 => '0',
    bstar => '3.4593e-05',
    id => '25693',
    elset => '398',
    epoch => '356.84250827'
  },
  'WO-18' => {
    orbit => '56967',
    raan => '65.9534',
    meananomaly => '330.3211',
    eccentricity => '0.0012246',
    meanmotion => '14.30797273',
    inclination => '98.4381',
    number => '90005',
    argperigee => '29.8671',
    mm1 => '3.24e-06',
    mm2 => '0',
    bstar => '0.00013985',
    id => '20441',
    elset => '387',
    epoch => '356.18802006'
  },
  'WO-39' => {
    orbit => '4719',
    raan => '252.1593',
    meananomaly => '14.1222',
    eccentricity => '0.0036569',
    meanmotion => '14.35183626',
    inclination => '100.1921',
    number => '4',
    argperigee => '345.8934',
    mm1 => '1.112e-05',
    mm2 => '0',
    bstar => '0.00040642',
    id => '26061',
    elset => '138',
    epoch => '356.1922237'
  }
);
1;
